{
  "type": "FeatureCollection",
  "features": [
    {
      "type": "Feature",
      "properties": {
        "norad_id": 30110,
        "name": "FENGYUN 1C DEB",
        "group": "fengyun-1c-debris",
        "lat": -4.612318410811604,
        "lon": -84.7260978161753,
        "alt_km": 1246.4972827104066,
        "timestamp": "2025-12-13T05:42:57.833056+00:00",
        "meta_object_name": "FENGYUN 1C DEB",
        "meta_object_id": "1999-025RP",
        "meta_epoch": "2025-12-12T05:47:12.799104",
        "meta_mean_motion": 13.56224156,
        "meta_eccentricity": 0.02676301,
        "meta_inclination": 98.9077,
        "meta_ra_of_asc_node": 95.0962,
        "meta_arg_of_pericenter": 354.3688,
        "meta_mean_anomaly": 5.446,
        "meta_ephemeris_type": 0,
        "meta_classification_type": "U",
        "meta_norad_cat_id": 30110,
        "meta_element_set_no": 999,
        "meta_rev_at_epoch": 93508,
        "meta_bstar": 0.00035095532,
        "meta_mean_motion_dot": 2.71e-06,
        "meta_mean_motion_ddot": 0,
        "tle_line1": "1 30110U 99025RP  25346.24112036  .00000271  00000+0  35096-3 0  9994",
        "tle_line2": "2 30110  98.9077  95.0962 0267630 354.3688   5.4460 13.56224156935088"
      },
      "geometry": {
        "type": "Point",
        "coordinates": [
          -84.7260978161753,
          -4.612318410811604
        ]
      }
    },
    {
      "type": "Feature",
      "properties": {
        "norad_id": 30112,
        "name": "FENGYUN 1C DEB",
        "group": "fengyun-1c-debris",
        "lat": 44.468169228183434,
        "lon": 150.44965246739469,
        "alt_km": 685.7264469539759,
        "timestamp": "2025-12-13T05:42:57.833067+00:00",
        "meta_object_name": "FENGYUN 1C DEB",
        "meta_object_id": "1999-025RR",
        "meta_epoch": "2025-12-11T21:01:11.464032",
        "meta_mean_motion": 14.22218097,
        "meta_eccentricity": 0.0201739,
        "meta_inclination": 99.2818,
        "meta_ra_of_asc_node": 319.7779,
        "meta_arg_of_pericenter": 110.0902,
        "meta_mean_anomaly": 252.2109,
        "meta_ephemeris_type": 0,
        "meta_classification_type": "U",
        "meta_norad_cat_id": 30112,
        "meta_element_set_no": 999,
        "meta_rev_at_epoch": 97570,
        "meta_bstar": 0.00078886,
        "meta_mean_motion_dot": 2.105e-05,
        "meta_mean_motion_ddot": 0,
        "tle_line1": "1 30112U 99025RR  25345.87582713  .00002105  00000+0  78886-3 0  9999",
        "tle_line2": "2 30112  99.2818 319.7779 0201739 110.0902 252.2109 14.22218097975709"
      },
      "geometry": {
        "type": "Point",
        "coordinates": [
          150.44965246739469,
          44.468169228183434
        ]
      }
    },
    {
      "type": "Feature",
      "properties": {
        "norad_id": 30113,
        "name": "FENGYUN 1C DEB",
        "group": "fengyun-1c-debris",
        "lat": 53.82291030460528,
        "lon": -173.1192896606115,
        "alt_km": 718.8027765200895,
        "timestamp": "2025-12-13T05:42:57.833078+00:00",
        "meta_object_name": "FENGYUN 1C DEB",
        "meta_object_id": "1999-025RS",
        "meta_epoch": "2025-12-12T03:27:26.032320",
        "meta_mean_motion": 14.45315798,
        "meta_eccentricity": 0.0040788,
        "meta_inclination": 99.0377,
        "meta_ra_of_asc_node": 198.2879,
        "meta_arg_of_pericenter": 3.7745,
        "meta_mean_anomaly": 121.0909,
        "meta_ephemeris_type": 0,
        "meta_classification_type": "U",
        "meta_norad_cat_id": 30113,
        "meta_element_set_no": 999,
        "meta_rev_at_epoch": 97900,
        "meta_bstar": 0.0029723082,
        "meta_mean_motion_dot": 0.00010511,
        "meta_mean_motion_ddot": 0,
        "tle_line1": "1 30113U 99025RS  25346.14405130  .00010511  00000+0  29723-2 0  9993",
        "tle_line2": "2 30113  99.0377 198.2879 0040788   3.7745 121.0909 14.45315798979006"
      },
      "geometry": {
        "type": "Point",
        "coordinates": [
          -173.1192896606115,
          53.82291030460528
        ]
      }
    },
    {
      "type": "Feature",
      "properties": {
        "norad_id": 30114,
        "name": "FENGYUN 1C DEB",
        "group": "fengyun-1c-debris",
        "lat": 40.723752542948034,
        "lon": 177.20126066117132,
        "alt_km": 801.4096931891718,
        "timestamp": "2025-12-13T05:42:57.833089+00:00",
        "meta_object_name": "FENGYUN 1C DEB",
        "meta_object_id": "1999-025RT",
        "meta_epoch": "2025-12-12T00:24:04.722912",
        "meta_mean_motion": 14.09651594,
        "meta_eccentricity": 0.0082183,
        "meta_inclination": 98.7466,
        "meta_ra_of_asc_node": 348.3987,
        "meta_arg_of_pericenter": 121.797,
        "meta_mean_anomaly": 301.403,
        "meta_ephemeris_type": 0,
        "meta_classification_type": "U",
        "meta_norad_cat_id": 30114,
        "meta_element_set_no": 999,
        "meta_rev_at_epoch": 97144,
        "meta_bstar": 0.00031914,
        "meta_mean_motion_dot": 5.35e-06,
        "meta_mean_motion_ddot": 0,
        "tle_line1": "1 30114U 99025RT  25346.01672133  .00000535  00000+0  31914-3 0  9990",
        "tle_line2": "2 30114  98.7466 348.3987 0082183 121.7970 301.4030 14.09651594971442"
      },
      "geometry": {
        "type": "Point",
        "coordinates": [
          177.20126066117132,
          40.723752542948034
        ]
      }
    },
    {
      "type": "Feature",
      "properties": {
        "norad_id": 30115,
        "name": "FENGYUN 1C DEB",
        "group": "fengyun-1c-debris",
        "lat": -46.449475635619784,
        "lon": -174.6740952759017,
        "alt_km": 880.5689547379743,
        "timestamp": "2025-12-13T05:42:57.833100+00:00",
        "meta_object_name": "FENGYUN 1C DEB",
        "meta_object_id": "1999-025RU",
        "meta_epoch": "2025-12-12T00:14:02.620320",
        "meta_mean_motion": 14.19772808,
        "meta_eccentricity": 0.0067838,
        "meta_inclination": 98.6232,
        "meta_ra_of_asc_node": 13.3145,
        "meta_arg_of_pericenter": 62.9383,
        "meta_mean_anomaly": 8.8203,
        "meta_ephemeris_type": 0,
        "meta_classification_type": "U",
        "meta_norad_cat_id": 30115,
        "meta_element_set_no": 999,
        "meta_rev_at_epoch": 97318,
        "meta_bstar": 0.0014449,
        "meta_mean_motion_dot": 3.09e-05,
        "meta_mean_motion_ddot": 0,
        "tle_line1": "1 30115U 99025RU  25346.00975255  .00003090  00000+0  14449-2 0  9993",
        "tle_line2": "2 30115  98.6232  13.3145 0067838  62.9383   8.8203 14.19772808973188"
      },
      "geometry": {
        "type": "Point",
        "coordinates": [
          -174.6740952759017,
          -46.449475635619784
        ]
      }
    },
    {
      "type": "Feature",
      "properties": {
        "norad_id": 30116,
        "name": "FENGYUN 1C DEB",
        "group": "fengyun-1c-debris",
        "lat": 11.118366047424065,
        "lon": -119.82621807923951,
        "alt_km": 810.0191196584537,
        "timestamp": "2025-12-13T05:42:57.833111+00:00",
        "meta_object_name": "FENGYUN 1C DEB",
        "meta_object_id": "1999-025RV",
        "meta_epoch": "2025-12-11T04:27:22.824576",
        "meta_mean_motion": 14.29264615,
        "meta_eccentricity": 0.00204726,
        "meta_inclination": 99.3972,
        "meta_ra_of_asc_node": 56.0976,
        "meta_arg_of_pericenter": 346.8603,
        "meta_mean_anomaly": 66.8048,
        "meta_ephemeris_type": 0,
        "meta_classification_type": "U",
        "meta_norad_cat_id": 30116,
        "meta_element_set_no": 999,
        "meta_rev_at_epoch": 97487,
        "meta_bstar": 0.0020817416,
        "meta_mean_motion_dot": 5.259e-05,
        "meta_mean_motion_ddot": 0,
        "tle_line1": "1 30116U 99025RV  25345.18568084  .00005259  00000+0  20817-2 0  9995",
        "tle_line2": "2 30116  99.3972  56.0976 0020472 346.8603  66.8048 14.29264615974877"
      },
      "geometry": {
        "type": "Point",
        "coordinates": [
          -119.82621807923951,
          11.118366047424065
        ]
      }
    },
    {
      "type": "Feature",
      "properties": {
        "norad_id": 30117,
        "name": "FENGYUN 1C DEB",
        "group": "fengyun-1c-debris",
        "lat": 47.687539745221855,
        "lon": -34.126691662096924,
        "alt_km": 975.4610586765011,
        "timestamp": "2025-12-13T05:42:57.833122+00:00",
        "meta_object_name": "FENGYUN 1C DEB",
        "meta_object_id": "1999-025RW",
        "meta_epoch": "2025-12-11T23:01:51.528288",
        "meta_mean_motion": 14.07162082,
        "meta_eccentricity": 0.0163622,
        "meta_inclination": 98.8039,
        "meta_ra_of_asc_node": 334.4295,
        "meta_arg_of_pericenter": 211.3609,
        "meta_mean_anomaly": 204.5885,
        "meta_ephemeris_type": 0,
        "meta_classification_type": "U",
        "meta_norad_cat_id": 30117,
        "meta_element_set_no": 999,
        "meta_rev_at_epoch": 96978,
        "meta_bstar": 0.00019959,
        "meta_mean_motion_dot": 3.34e-06,
        "meta_mean_motion_ddot": 0,
        "tle_line1": "1 30117U 99025RW  25345.95962417  .00000334  00000+0  19959-3 0  9994",
        "tle_line2": "2 30117  98.8039 334.4295 0163622 211.3609 204.5885 14.07162082969785"
      },
      "geometry": {
        "type": "Point",
        "coordinates": [
          -34.126691662096924,
          47.687539745221855
        ]
      }
    }
  ]
}